ONEWEB-0504             
1 54122U 22138K   25222.12778247  .00000017  00000+0  90163-5 0  9992
2 54122  87.9249   6.7913 0002122  91.8836 268.2540 13.19725954135803
ONEWEB-0505             
1 54123U 22138L   25222.35206645  .00000114  00000+0  25204-3 0  9996
2 54123  87.9246   6.7359 0002231  83.7600 276.3787 13.19724301135814
ONEWEB-0506             
1 54124U 22138M   25222.09934938 -.00000026  00000+0 -97508-4 0  9992
2 54124  87.9246   6.7830 0001973  91.5582 268.5776 13.19726833135775
ONEWEB-0507             
1 54125U 22138N   25222.19569356  .00000729  00000+0  17892-2 0  9996
2 54125  87.9241   6.8171 0001952  89.5341 270.6016 13.19721699135830
ONEWEB-0508             
1 54126U 22138P   25222.11672494  .00000057  00000+0  11051-3 0  9993
2 54126  87.9245   6.8158 0001973  83.8377 276.2980 13.19726070135806
ONEWEB-0509             
1 54127U 22138Q   25222.39470947  .00000014  00000+0  14392-5 0  9999
2 54127  87.9250   6.7221 0001922  92.3995 267.7358 13.19726671135810
ONEWEB-0510             
1 54128U 22138R   25222.60439452  .00000069  00000+0  13712-3 0  9993
2 54128  87.9302 336.3253 0001809 115.9803 244.1517 13.20773652138283
ONEWEB-0511             
1 54129U 22138S   25222.39155688  .00000023  00000+0  24890-4 0  9996
2 54129  87.9247   6.7281 0002123  99.3263 260.8110 13.19726787135844
